OBJECT_NAME,OBJECT_ID,EPOCH,MEAN_MOTION,ECCENTRICITY,INCLINATION,RA_OF_ASC_NODE,ARG_OF_PERICENTER,MEAN_ANOMALY,EPHEMERIS_TYPE,CLASSIFICATION_TYPE,NORAD_CAT_ID,ELEMENT_SET_NO,REV_AT_EPOCH,BSTAR,MEAN_MOTION_DOT,MEAN_MOTION_DDOT
HAWK-5A,2022-057AB,2026-07-12T20:04:29.250624,15.52270798,.000357,97.6615,354.3619,347.6384,12.4780,0,U,52757,999,23032,.21761E-3,.13121E-3,0
HAWK-6B,2023-011A,2026-07-12T11:50:52.794240,15.23138816,.00037942,40.4967,204.4428,226.2355,133.8140,0,U,55324,999,19170,.11181159E-3,.25E-4,0
HAWK-6C,2023-011C,2026-07-12T10:15:33.617088,15.23140487,.00042909,40.4959,201.6644,217.2820,142.7692,0,U,55326,999,19170,.1165287E-3,.2614E-4,0
HAWK-6A,2023-011D,2026-07-12T10:15:36.715392,15.23139285,.00038014,40.4967,203.2914,214.8254,145.2307,0,U,55327,999,19170,.11315945E-3,.2533E-4,0
HAWK-7A,2023-054P,2026-07-12T17:23:10.862592,15.27616613,.0001685,97.2673,80.4129,346.2656,13.8537,0,U,56191,999,18092,.12045E-3,.318E-4,0
HAWK-7B,2023-054R,2026-07-12T17:23:04.697088,15.27613837,.0001618,97.2699,78.6857,20.7154,339.4151,0,U,56193,999,18092,.11576E-3,.3053E-4,0
HAWK-7C,2023-054Y,2026-07-12T15:48:34.888032,15.27617444,.0001162,97.2676,79.3827,6.2010,353.9244,0,U,56200,999,18091,.1206E-3,.3184E-4,0
